Site Name,Address,City,State,Latitude,Longitude
1634,445 W Bobo Newsom Highway,Hartsville,SC,34.3387023,-80.0826036
ART 1,1947 N Fayetteville St,Asheboro,NC,35.752593,-79.8063854
ART 3,187 High House Road,Cary,NC,35.7832799,-78.7984122
ART 4,149 Campus Drive,Warrenton,NC,36.4324177,-78.1655282
ASPP 2,17900 Dana Rd,Laurinburg,NC,34.7740494,-79.4628248
Adams,627 Hwy 17,Piedmont,SC,34.6954421,-82.5294726
Adams Neilson,S.Neilson Rd; W. 3rd St,Lind,WA,46.9659215,-118.6210891
Agate Bay,14841 Agate Rd,Eagle Point,OR,42.5225614,-122.8367639
Albertson,119 Coy Smith Rd. ,Albertson,NC,35.0936415,-77.8122265
Amethyst,1523 US 221 HWY South,Rutherfordton,NC,35.3161945,-81.9288646
Anderson,914 Lewis St,Anderson,SC,34.49283,-82.673773
Arba,4334 Hull Road,Snow Hill,NC,35.3950703,-77.7062443
Arba Solar Energy Storage,3666 Hwy 903 S,Snow Hill,NC,35.4192471,-77.7300741
Atkinson 2,681 JACKSON STORE ROAD,Beulaville,NC,34.8934035,-77.7963396
Audrey,807 Greenbrook Dr,Shelby,NC,35.3342461,-81.6183178
Augusta,318 Callison Hwy,Greenwood,SC,34.1232438,-82.1277548
Aulander,"1625 NC 11 S

Pole ID 305R4 (757) 857-2888",Aulander,NC,35.2443113,-77.6151047
Bani,619 North Lynchburg Highway,Olanta,SC,33.9549102,-79.9373225
Bartow,4115 E Gaskins Rd ,Bartow,FL,27.9249718,-81.7781868
Beaufort,7840 U.S. 17S,Chocowinity,NC,35.4683971,-77.1195727
Best Lane Collector Station,52960 Best Lane,Suntex,OR,43.8041334,-120.5542012
Beulaville,165 Little Bubbles Lane,Beulaville,NC,34.9019395,-77.7846597
Bighorn,5604 Lardon Road NE Right turn onto gravel road rather than staying left on pav,Salem,OR,44.9681979,-122.9465544
Briarwood,1325 Florida Avenue,Greenwood,SC,34.144119,-82.173658
Brightwood,55855 E Marmot Rd,Sandy,Oregon,45.387232,-122.089101
Brush Creek,12115 Selah Springs Rd NE,Silverton ,OR ,44.9842385,-122.8142096
"Carnes Creek Solar, LLC",10825 Portland Road NE,Silverton,OR,45.0759708,-122.9279526
Carter,500 John B Carter Rd,Fayetteville,NC,35.0236285,-78.7885823
Chiloquin,42433 Cattle Dr,Chiloquin,OR,42.6092047,-121.859212
Collier,21875 Neff Rd,Bend,OR,44.061078,-121.227416
Colton,19135 S Hwy 211,Molalla,OR,45.1475439,-122.5771264
Connley Collector Station,62661 Webster Road ,Fort Rock,OR,43.3775252,-120.9941091
"Cosper Creek Solar, LLC",22755 OR-18 BUS,Willamina,OR,45.0613678,-123.494296
Cotten Farm,1141 Cotten Rd.,Sanford,North Carolina,35.528411,-79.2015107
Cottonwood,324 Macon Price Rd,Garysburg,NC,36.509118,-77.612707
County Home,230 Victory Lane,Shelby,NC,35.2627518,-81.504169
Dairy,977 Mitchell Rd,Dairy,OR,42.244756,-121.575658
Davis Lane,132 Davis Lane,Edenton,NC,36.1071393,-76.527675
Dayton Cutoff,10070 SE Amity Dayton Hwy,McMinnville,OR,45.1721565,-123.1302551
Drift Creek,12533 Finlay Rd. NE ,Silverton,OR,44.9698988,-122.8063682
EMJ Solar,10301 Falls of Neuse Rd,Raleigh,NC,35.914821,-78.599498
Eagle Point,5842 McLoughlin Dr,Central Point,OR,42.399763,-122.829839
Exhibit Court,7521 Exhibit Court,Raleigh,NC,35.9141997,-78.7587959
Facile Solar,2635 W. Front St. ,Burlington,NC,36.0998675,-79.4918971
Faison,190 Robert Hobbs Rd,Faison,NC,35.0720548,-78.1140247
Fayetteville PWC,2274 Custer Ave,Fayetteville,NC,35.0987636,-78.8307876
Fort Rock Solar I,78625 Connley Lane,Fort Rock,OR,43.315587,-121.002211
Fort Rock Solar IV,62661 Webster Rd,Fort Rock,OR,43.3775252,-120.9941091
Four Oaks,1667 NC HWY 96 S,Four Oaks,NC,35.432589,-78.409491
Franklin,151 Firetower Road,Louisburg,NC,36.09876,-78.172316
Freemont,857 NC HWY 16,Stanley,NC,35.4274536,-81.004359
"Fruitland Creek Solar, LLC",6025 State St,Salem,OR,44.930017,-122.936891
GE Aviation,3701 S Miami Blvd,Durham,NC,35.91357,-78.8507
Garner Solar,3220 Transmitter Road,Garner ,NC,35.6744183,-78.5260072
Gastonia Solar,605 Neal Hawkins Rd.,Gastonia,NC,35.2292702,-81.1893838
Gauss,12350 HWY NC-903,Halifax,NC,36.3530281,-77.6436128
Gold Mine,280 Gold Mine Road,Bradley,SC,34.076103,-82.230673
Grand Ronde,28098 Andy Riggs Rd,Grand Ronde,OR,45.0545711,-123.6070884
Grantham Middle School,3093 South US 13 Hwy S,Goldsboro,NC,35.4278993,-77.8834207
Hamlet Solar Energy Storage,120 Cooperative Way,Hamlet,NC,34.84372,-79.7348258
Interstate,14425 Butteville Rd NE,Gervais,OR,45.1300811,-122.8986471
Jersey,1253 Wire Grass Road,Lumberton,NC,34.5645517,-79.0373394
"Kaiser Creek Solar, LLC",32018 S HWY 213,Molalla,OR,45.1409056,-122.6082332
Kohl's Beaverton,11055 SW Canyon Rd�,Beaverton�,OR�,45.4933447,-122.7902808
Lafayette,2239 S Lafayette St,Shelby,NC,35.232396,-81.564248
Lakeview ,1740-1906 Missouri Ave,Lakeview,OR,42.2039229,-120.3604354
Lane,740 OLD SMITHFIELD ROAD,GOLDSBORO,NC,35.401785,-78.0509986
Langley,6208 East Langley Rd,Elm City,NC,35.8031296,-77.8497961
Little River,1088 Little River Rd,Asheboro,NC,35.5333078,-79.8038707
Locust Grove,525 Locust Grove Road,Spartanburg,SC,35.0047,-81.9833943
Manning,911 Manning Ave,Elon,NC,36.118451,-79.521393
Mariposa,220 Mariposa Road,Stanley,NC,35.3755432,-81.0912674
Mattress Factory,651 Mattress Factory rd,Mebane,NC,36.08443,-79.24234
Meeks,1670 Meeks Rd,Robersonville,NC,35.8144581,-77.2920514
Merrill,21439 Hwy-39 ,Merrill,OR,42.030549,-121.6134574
Mill Creek,30200 Mill Creek Rd,Sheridan,OR,45.0869971,-123.4235455
Milo,2153 McCray Rd,Burlington,NC,36.1520308,-79.352122
Minke,11912 S. Barnards Rd,Molalla,OR,45.171517,-122.622668
Minnie,5257 Lindley Mill Rd (concrete apron to gravel road. Sign says EWVFD Water Point 5-37),Graham,NC,35.9499315,-79.3605398
Monroe Moore,2003 New Town Rd.,Monroe,NC,34.972356,-80.6029
Montgomery Park - American Can Building,2701 NW Vaughn St�,Portland�,OR�,45.5375454,-122.7078005
Montgomery Park - Nacco Building,2701 NW Vaughn St�,Portland�,OR�,45.5375454,-122.7078005
Montgomery Park - North Parking Garage,2701 NW Vaughn St�,Portland�,OR�,45.5375454,-122.7078005
Montgomery Park Building,2701 NW Vaughn St�,Portland�,OR�,45.5375454,-122.7078005
Multnomah - JBY Facility,1600-1620 SE 190th Ave�,Portland�,OR�,45.510775,-122.466455
Multnomah County - Juvenile Justice Complex,1401 NE 68th Ave�,Portland�,OR�,45.5313143,-122.5947697
NC Solar I,1500 Stewartsville Rd.,Laurinburg,NC,34.7571929,-79.4465891
NC Solar II,9240 McColl road,Laurinburg,NC,34.7054389,-79.5222
Nitro,1975 Yelverton Grove Rd,Smithfield,NC,35.4869691,-78.3095916
Old Catawba,3428 Old Catawba Rd,Claremont,NC,35.7102897,-81.1335389
Owen,4944 Hickory Lincolnton Hwy,Lincolnton,NC,35.5886413,-81.3084146
PCSP 1,75 Crown Blvd.,Timberlake,NC,36.3130862,-78.9700099
PCSP 3,157 Hunt Club road,Timberlake,NC,36.288148,-78.98884
Pamlico,1864 NC HIGHWAY 92,Washington,NC,35.4978513,-76.8778387
Pecan,119 Pecan Rd.,Rockingham,NC,34.909042,-79.823373
Penny Hill,3528 Penny Hill Rd,Greenville,NC,35.7580804,-77.5108435
Pika,14015 Dominic Rd NE,Mt Angel,OR,45.0856939,-122.7738774
Princeton,4250 Bizzell Grove Church Rd,Princeton,NC,35.5017155,-78.1911105
Progress Energy - Sutton,"249 Sutton Lake Rd, Wilmington NC 28401",Wilmington,NC,34.2931396,-77.9778673
Providence Newberg Medical Center,1001 Providence Dr�,Newberg�,OR�,45.3078653,-122.935779
Quarter Horse,289 Hilltop Farm Road,Hampstead,NC,34.43652,-77.640931
Railroad,409 E Railroad St,Pembroke,NC,34.680667,-79.18507
Red Oak,1776 Red Oak Rd.,Nashville,NC,35.9933949,-77.9339112
Ridgeback,509 Frances Dr.,Liberty,NC,35.8656631,-79.5802177
Riley Solar I,52960 Best Lane,Suntex,OR,43.8041334,-120.5542012
Rock Garden Collector Station,62661 Webster Road,Fort Rock,OR,43.3775252,-120.9941091
Rose Acre Solar Energy Storage,1558 Hyde Park Canal Rd,Pantego,NC,35.6429368,-76.5540979
Sadiebrook,11519 South College St.,Clarkton,NC,34.473436,-78.65606
"Sandy River Solar, LLC",36017 SE Dunn Rd,Boring,OR,45.4311,-122.294863
Sarah,171 Brewer Rd,Louisburg,NC,36.1382819,-78.147307
Schell,193 Hilltop Drive,Garysburg,NC,36.4367492,-77.5692183
Sedberry Farm,347 Airport Rd.,Lakeview ,NC,35.243129,-79.319978
"Sesqui-C Solar, LLC",6099 NE Fryer Rd,Yamhill,OR,45.3213599,-123.1728666
Sheep,8723 55th Ave. SE,Turner,OR,44.828167,-122.949022
Siler 421,139 Pondarosa Road,Siler City,NC,35.7485463,-79.4520941
Silverton,235 Airport Rd NE ,Silverton,OR,45.014642,-122.807191
Soluga IV,10212 Dunn Rd,Godwin,NC,35.220005,-78.6697518
Sonne Two,2339 Mt Olive Church Rd.,Newton,NC,35.6591386,-81.1797692
Sophie,3495 Lattimore Rd,Mooresboro,NC,35.3030588,-81.6957816
South River H4 Solar Energy Storage,2092 Leroy Autry Rd,Autryville,NC,35.042117,-78.587188
South Robeson,7821 HWY 710 Rowland NC ,Rowland,NC,34.562399,-79.289311
Spring Creek Middle School,3579 South NC Hwy 111,Seven Springs,NC,35.230474,-77.8962799
Star,5379 Red Mill Rd,Durham,NC,36.081757,-78.824888
Starvation Ridge Collector Station,Not Provided,Hines,OR,43.5640385,-119.0810482
Starvation Solar I,Starvation Ridge Rd 67364 Reno Road,Hines,OR,43.5640385,-119.0810482
SteelFab NC 8623 Old Dowd,8623 Old Dowd Rd,Charlotte,NC,35.2285375,-80.978646
SteelFab SC 1220 Steel,1220 Steel Rd,Florence,SC,34.1770333,-79.7012481
SteelFab VA 1510 Reese,1510 Reese St,Emporia,VA,36.7029648,-77.5253738
Strider,3925 Archie Newsom Rd,Asheboro,NC,35.6034451,-79.7841783
Thornton,100 Thornton Lane,Snow Hill,NC,35.3942465,-77.6638816
Tiburon,3030 NC Highway 801 S,Advance,NC,35.9055563,-80.4150665
Tumbleweed,9018 The Dalles-California Hwy,Redmond,OR,44.1929935,-121.2347519
Turkey Hill,22330 Drazil Rd,Malin,OR,42.0223371,-121.4188952
Unifi,1032 Unifi Industrial Dr,Yadkinville,NC,36.1266225,-80.6387576
Valley Creek,3151 Valley Creek Rd NW,Salem,OR,45.0325977,-123.0926858
Vanguard - Classic Leather,307 Simpson St.,Conover,NC,35.7133065,-81.2471698
Vanguard - Product Development,431 Simpson St.,Conover,NC,35.7108835,-81.2455158
Wake RJ3 Solar Energy Storage,6908 Zebulon Rd.,Wake Forest,NC,35.954775,-78.422614
Walgreens - Aloha,19975 SW Tualatin Valley Hwy�,Beaverton�,OR�,45.4959694,-122.8822223
Walgreens - Cornelius,115 N 20th Ave�,Cornelius�,OR�,45.5209948,-123.0479497
Walgreens - Gresham,4285 W Powell Blvd�,Gresham�,OR�,45.490571,-122.4749618
Walgreens - Hillsboro,7010 NE Cornell Rd�,Hillsboro�,OR�,45.5349742,-122.9068093
Walgreens - Keizer,5000 River Rd N�,Keizer�,OR�,44.9973909,-123.0259918
Walgreens - Lake Oswego,17850 Lower Boones Ferry Rd,Lake Oswego,OR,45.3962372,-122.7420782
Walgreens - Milwaukie,10903 SE Oak St�,Milwaukie�,OR�,45.4443268,-122.6296245
Walgreens - Newberg,1840 Portland Rd�,Newberg�,OR�,45.3010047,-122.9615038
Walgreens - Portland - 12335 Glisan,12335 NE Glisan St,Portland,OR,45.5265684,-122.5361174
Walgreens - Portland - 82nd,9159 SE 82nd Ave�,Portland�,OR�,45.4563995,-122.580611
Walgreens - Portland - MLK,6116 NE M L King Blvd�,Portland�,OR�,45.5672106,-122.660961
Walgreens - Salem - 124 Lancaster,124 Lancaster Dr SE�,Salem�,OR�,44.9275065,-122.9824649
Walgreens - Salem - 1992 Lancaster,1992 Lancaster Dr NE�,Salem�,OR�,44.9533954,-122.9828526
Walgreens - Sherwood,21065 SW Pacific Hwy�,Sherwood�,OR�,45.3673958,-122.8485391
Walgreens - Tigard,13939 SW Pacific Hwy�,Tigard�,OR�,45.4192418,-122.7875082
Walgreens - Troutdale,25699 SE Stark St�,Troutdale�,OR�,45.5194336,-122.3989527
Walgreens - Warrenton,1625 E Harbor Dr�,Warrenton�,OR�,46.1635124,-123.8963058
Walgreens - Wilsonville,9450 SW Wilsonville Rd�,Wilsonville�,OR�,45.3023616,-122.7737323
Watson Seed,16825 Watson Seed Farm Rd,Whitakers,NC,36.1272848,-77.7210212
Weaver,4265 Lynchburg Hwy,Lynchbrug,SC,34.069764,-80.078438
West Newberry,304 Industrial Park Rd,Newberry,SC,34.2465996,-81.6493332
Wingo Park,5670 N Blackstock Rd,Spartanburg,SC,34.994275,-82.033623
Woodline,17017 HWY 140 E ,Dairy,OR,42.2349378,-121.5764981
Woodsdale,1433 Woodsdale Rd,Roxboro,NC,36.4626379,-78.9582942